NORAD_CAT_ID,OBJECT_NAME,OBJECT_TYPE,EPOCH,MEAN_MOTION,ECCENTRICITY,INCLINATION,RA_OF_ASC_NODE,ARG_OF_PERICENTER,MEAN_ANOMALY,BSTAR,MEAN_MOTION_DOT,MEAN_MOTION_DDOT,TLE_LINE0,TLE_LINE1,TLE_LINE2,SEMIMAJOR_AXIS,PERIOD,APOGEE,PERIGEE,DECAYED
52001.0,STARLINK-3659,PAYLOAD,2022-07-13 22:00:00,15.0881598,0.0001368,53.2155,251.1332,85.0347,55.9999,-0.00039688,-6.594e-05,0.0,0 STARLINK-3659,1 52001U 22025AX  22194.91667824 -.00006594  00000-0 -39688-3 0  9993,2 52001  53.2155 251.1332 0001368  85.0347  55.9999 15.08815980  1308,6917.954000000002,95.439,540.765,538.872,0.0
52001.0,STARLINK-3659,PAYLOAD,2022-07-14 04:00:00,15.08812911,0.0001466,53.2155,250.0107,88.0357,331.6668,0.0013103,0.00020611,0.0,0 STARLINK-3659,1 52001U 22025AX  22195.16667824  .00020611  00000-0  13103-2 0  9998,2 52001  53.2155 250.0107 0001466  88.0357 331.6668 15.08812911 20982,6917.9630000000025,95.439,540.842,538.814,0.0
52001.0,STARLINK-3659,PAYLOAD,2022-07-14 14:00:01,15.08795384,0.0001474,53.2154,248.1421,76.1323,88.0375,0.0032133,0.0005116,0.0,0 STARLINK-3659,1 52001U 22025AX  22195.58334491  .00051160  00000-0  32133-2 0  9992,2 52001  53.2154 248.1421 0001474  76.1323  88.0375 15.08795384  1305,6918.017,95.44,540.901,538.862,0.0
52001.0,STARLINK-3659,PAYLOAD,2022-07-14 22:00:00,15.08819408,0.0001398,53.2155,246.6441,83.6425,92.0981,0.00086234,0.00013455,0.0,0 STARLINK-3659,1 52001U 22025AX  22195.91667824  .00013455  00000-0  86234-3 0  9995,2 52001  53.2155 246.6441 0001398  83.6425  92.0981 15.08819408 21104,6917.943,95.439,540.775,538.841,0.0
52001.0,STARLINK-3659,PAYLOAD,2022-07-15 14:00:01,15.08814455,0.0001475,53.2155,243.6529,74.7092,124.2031,0.0032922,0.00052461,0.0,0 STARLINK-3659,1 52001U 22025AX  22196.58334491  .00052461  00000-0  32922-2 0  9994,2 52001  53.2155 243.6529 0001475  74.7092 124.2031 15.08814455  1306,6917.958000000001,95.439,540.844,538.803,0.0
52001.0,STARLINK-3659,PAYLOAD,2022-07-15 22:00:00,15.08832409,0.0001383,53.2156,242.1546,83.2828,127.2227,0.0013581,0.00021388,0.0,0 STARLINK-3659,1 52001U 22025AX  22196.91667824  .00021388  00000-0  13581-2 0  9994,2 52001  53.2156 242.1546 0001383  83.2828 127.2227 15.08832409  1309,6917.904,95.438,540.725,538.812,0.0
52001.0,STARLINK-3659,PAYLOAD,2022-07-16 06:00:00,15.08864274,0.0001434,53.2158,240.6587,83.6646,138.4315,-0.0012122,-0.00019541,0.0,0 STARLINK-3659,1 52001U 22025AX  22197.25001157 -.00019541  00000-0 -12122-2 0  9993,2 52001  53.2158 240.6587 0001434  83.6646 138.4315 15.08864274 21307,6917.806,95.436,540.663,538.679,0.0
52001.0,STARLINK-3659,PAYLOAD,2022-07-16 14:00:01,15.08844644,0.0001393,53.2155,239.1634,74.3178,159.3962,0.00066203,0.00010265,0.0,0 STARLINK-3659,1 52001U 22025AX  22197.58334491  .00010265  00000-0  66203-3 0  9991,2 52001  53.2155 239.1634 0001393  74.3178 159.3962 15.08844644  1308,6917.866,95.437,540.695,538.768,0.0
52001.0,STARLINK-3659,PAYLOAD,2022-07-16 22:00:00,15.0882335,0.0001227,53.2157,237.6651,83.45700000000002,161.8754,0.0014703,0.00023179,0.0,0 STARLINK-3659,1 52001U 22025AX  22197.91667824  .00023179  00000-0  14703-2 0  9992,2 52001  53.2157 237.6651 0001227  83.4570 161.8754 15.08823350  1303,6917.931,95.439,540.645,538.947,0.0
52001.0,STARLINK-3659,PAYLOAD,2022-07-17 06:00:00,15.08855638,0.0001274999999999,53.2157,236.1694,83.2205,173.6934,-0.0013165999999999,-0.00021189,0.0,0 STARLINK-3659,1 52001U 22025AX  22198.25001157 -.00021189  00000-0 -13166-2 0  9994,2 52001  53.2157 236.1694 0001275  83.2205 173.6934 15.08855638 21453,6917.833000000001,95.437,540.58,538.816,0.0
52001.0,STARLINK-3659,PAYLOAD,2022-07-17 14:00:01,15.08826685,0.0001273,53.2154,234.6739,73.7594,194.7568,0.002472,0.00039259,0.0,0 STARLINK-3659,1 52001U 22025AX  22198.58334491  .00039259  00000-0  24720-2 0  9993,2 52001  53.2154 234.6739 0001273  73.7594 194.7568 15.08826685  1305,6917.920999999999,95.438,540.6669999999998,538.905,0.0
52001.0,STARLINK-3659,PAYLOAD,2022-07-17 22:00:00,15.08824826,0.0001213,53.2155,233.1757,85.0487,195.0647,0.0022164,0.00035148,0.0,0 STARLINK-3659,1 52001U 22025AX  22198.91667824  .00035148  00000-0  22164-2 0  9992,2 52001  53.2155 233.1757 0001213  85.0487 195.0647 15.08824826  1308,6917.927,95.439,540.631,538.953,0.0
52001.0,STARLINK-3659,PAYLOAD,2022-07-18 06:00:00,15.08870243,0.0001303,53.2156,231.6802,83.46700000000001,208.2347,-0.0044658,-0.00070721,0.0,0 STARLINK-3659,1 52001U 22025AX  22199.25001157 -.00070721  00000-0 -44658-2 0  9991,2 52001  53.2156 231.6802 0001303  83.4670 208.2347 15.08870243 21602,6917.788000000001,95.436,540.554,538.752,0.0
52001.0,STARLINK-3659,PAYLOAD,2022-07-18 14:00:01,15.08810161,0.0001355,53.2151,230.1846,75.5666,227.7358,0.0016858,0.00026621,0.0,0 STARLINK-3659,1 52001U 22025AX  22199.58334491  .00026621  00000-0  16858-2 0  9996,2 52001  53.2151 230.1846 0001355  75.5666 227.7358 15.08810161  1309,6917.972,95.439,540.774,538.899,0.0
52001.0,STARLINK-3659,PAYLOAD,2022-07-18 22:00:00,15.08801773,0.0001314,53.2152,228.6865,86.2962,228.5859,0.0025237,0.00040063,0.0,0 STARLINK-3659,1 52001U 22025AX  22199.91667824  .00040063  00000-0  25237-2 0  9999,2 52001  53.2152 228.6865 0001314  86.2962 228.5859 15.08801773 21706,6917.996999999999,95.44,540.771,538.953,0.0
52001.0,STARLINK-3659,PAYLOAD,2022-07-19 14:00:01,15.08823174,0.0001348,53.215,225.6954,74.9134,263.1215,0.0011942,0.0001876,0.0,0 STARLINK-3659,1 52001U 22025AX  22200.58334491  .00018760  00000-0  11942-2 0  9993,2 52001  53.2150 225.6954 0001348  74.9134 263.1215 15.08823174 21803,6917.932,95.439,540.729,538.864,0.0
52001.0,STARLINK-3659,PAYLOAD,2022-07-19 22:00:00,15.08778416,0.000134,53.2162,224.2013,84.5407,265.0919,0.0087102999999999,0.00140884,0.0,0 STARLINK-3659,1 52001U 22025AX  22200.91667824  .00140884  00000-0  87103-2 0  9994,2 52001  53.2162 224.2013 0001340  84.5407 265.0919 15.08778416  1302,6918.069,95.441,540.861,539.007,0.0
52001.0,STARLINK-3659,PAYLOAD,2022-07-20 14:00:01,15.08840553,0.0001373,53.215,221.2061,73.0612,299.7501,0.00084785,0.00013231,0.0,0 STARLINK-3659,1 52001U 22025AX  22201.58334491  .00013231  00000-0  84785-3 0  9998,2 52001  53.2150 221.2061 0001373  73.0612 299.7501 15.08840553 21952,6917.879,95.438,540.694,538.794,0.0
52001.0,STARLINK-3659,PAYLOAD,2022-07-20 22:00:01,15.08821268,0.0001324,53.2151,219.7079,83.3115,301.1714,0.0029563,0.00047052,0.0,0 STARLINK-3659,1 52001U 22025AX  22201.91668981  .00047052  00000-0  29563-2 0  9999,2 52001  53.2151 219.7079 0001324  83.3115 301.1714 15.08821268  1305,6917.938,95.439,540.719,538.887,0.0
52001.0,STARLINK-3659,PAYLOAD,2022-07-21 08:00:01,15.08849872,0.0001398,53.2152,217.8391,74.5429,54.37600000000001,-0.0029351,-0.0004671,0.0,0 STARLINK-3659,1 52001U 22025AX  22202.33334491 -.00046710  00000-0 -29351-2 0  9999,2 52001  53.2152 217.8391 0001398  74.5429  54.3760 15.08849872 22079,6917.85,95.437,540.682,538.748,0.0
52001.0,STARLINK-3659,PAYLOAD,2022-07-21 14:00:01,15.08824008,0.0001311,53.2152,216.7167,69.2575,338.4148,0.00030638,4.589e-05,0.0,0 STARLINK-3659,1 52001U 22025AX  22202.58335648  .00004589  00000-0  30638-3 0  9998,2 52001  53.2152 216.7167 0001311  69.2575 338.4148 15.08824008  1309,6917.929,95.439,540.701,538.887,0.0
52001.0,STARLINK-3659,PAYLOAD,2022-07-21 22:00:00,15.08802784,0.0001258,53.2154,215.2187,80.0263,339.1690000000001,0.0028851999999999,0.00045882,0.0,0 STARLINK-3659,1 52001U 22025AX  22202.91667824  .00045882  00000-0  28852-2 0  9994,2 52001  53.2154 215.2187 0001258  80.0263 339.1690 15.08802784 22155,6917.994000000002,95.44,540.729,538.989,0.0
52001.0,STARLINK-3659,PAYLOAD,2022-07-22 06:00:00,15.08842681,0.000138,53.2155,213.7237,73.9361,356.8298,-0.0017035,-0.00027299,0.0,0 STARLINK-3659,1 52001U 22025AX  22203.25001157 -.00027299  00000-0 -17035-2 0  9998,2 52001  53.2155 213.7237 0001380  73.9361 356.8298 15.08842681  1305,6917.871999999999,95.437,540.692,538.783,0.0
52001.0,STARLINK-3659,PAYLOAD,2022-07-22 12:00:00,15.08814357,0.0001382,53.2155,212.6021,68.0794,281.3815,0.0025106,0.00039866,0.0,0 STARLINK-3659,1 52001U 22025AX  22203.50001157  .00039866  00000-0  25106-2 0  9995,2 52001  53.2155 212.6021 0001382  68.0794 281.3815 15.08814357 22243,6917.959,95.439,540.78,538.868,0.0
52001.0,STARLINK-3659,PAYLOAD,2022-07-22 22:00:00,15.08815395,0.0001303,53.2157,210.7296,78.8197,15.1288,0.0027289,0.00043381,0.0,0 STARLINK-3659,1 52001U 22025AX  22203.91667824  .00043381  00000-0  27289-2 0  9990,2 52001  53.2157 210.7296 0001303  78.8197  15.1288 15.08815395  1301,6917.956,95.439,540.722,538.919,0.0
52001.0,STARLINK-3659,PAYLOAD,2022-07-23 14:00:01,15.08848628,0.0001399,53.2155,207.7383,68.2924,48.8966,-0.00068923,-0.00011243,0.0,0 STARLINK-3659,1 52001U 22025AX  22204.58335648 -.00011243  00000-0 -68923-3 0  9995,2 52001  53.2155 207.7383 0001399  68.2924  48.8966 15.08848628  1309,6917.854,95.437,540.687,538.751,0.0
52001.0,STARLINK-3659,PAYLOAD,2022-07-23 22:00:00,15.08827093,0.0001320999999999,53.2157,206.2404,78.9922,49.7439,0.0024741,0.00039293,0.0,0 STARLINK-3659,1 52001U 22025AX  22204.91667824  .00039293  00000-0  24741-2 0  9998,2 52001  53.2157 206.2404 0001321  78.9922  49.7439 15.08827093 22468,6917.92,95.438,540.6990000000002,538.871,0.0
52001.0,STARLINK-3659,PAYLOAD,2022-07-24 14:00:01,15.08860083,0.0001401,53.2153,203.249,69.4614,82.4728,-0.0011739,-0.00018932,0.0,0 STARLINK-3659,1 52001U 22025AX  22205.58334491 -.00018932  00000-0 -11739-2 0  9995,2 52001  53.2153 203.2490 0001401  69.4614  82.4728 15.08860083  1309,6917.819,95.436,540.653,538.715,0.0
52001.0,STARLINK-3659,PAYLOAD,2022-07-24 22:00:00,15.08849194,0.0001382,53.2154,201.7513,80.3714,83.1773,-0.00058724,-9.624e-05,0.0,0 STARLINK-3659,1 52001U 22025AX  22205.91667824 -.00009624  00000-0 -58724-3 0  9995,2 52001  53.2154 201.7513 0001382  80.3714  83.1773 15.08849194  1308,6917.852,95.437,540.673,538.761,0.0
